OBJECT_NAME,OBJECT_ID,EPOCH,MEAN_MOTION,ECCENTRICITY,INCLINATION,RA_OF_ASC_NODE,ARG_OF_PERICENTER,MEAN_ANOMALY,EPHEMERIS_TYPE,CLASSIFICATION_TYPE,NORAD_CAT_ID,ELEMENT_SET_NO,REV_AT_EPOCH,BSTAR,MEAN_MOTION_DOT,MEAN_MOTION_DDOT
ONEWEB-0068,2020-020Y,2026-07-10T12:00:14.370912,13.11417068,.00016372,87.8886,16.4228,89.1015,271.0301,0,U,45446,999,30565,.15981688E-2,.579E-5,0
ONEWEB-0046,2020-020Z,2026-07-10T22:47:24.971712,13.11419055,.0001713,87.8881,16.3371,81.3923,278.7399,0,U,45447,999,30572,.64704E-3,.242E-5,0
ONEWEB-0063,2020-020AA,2026-07-10T23:29:07.584000,13.11414609,.000193,87.8883,16.3327,80.6790,279.4556,0,U,45448,999,30581,.67343E-3,.251E-5,0
ONEWEB-0019,2020-020AB,2026-07-10T11:35:46.738176,13.11411489,.00018495,87.8880,16.4163,95.2639,264.8700,0,U,45449,999,30559,-.1122567E-2,-.385E-5,0
ONEWEB-0094,2020-020AC,2026-07-10T10:32:45.773952,13.17648552,.00017021,87.9146,1.2248,98.0772,262.0553,0,U,45450,999,30937,.19926031E-3,.9E-6,0
ONEWEB-0087,2020-020AD,2026-07-10T23:43:22.048032,13.11414649,.0001578,87.8895,16.3063,92.9078,267.2230,0,U,45451,999,30570,-.8065E-3,-.273E-5,0
ONEWEB-0082,2020-020AE,2026-07-10T23:38:29.348160,13.11414810,.0001398,87.8893,16.3222,82.7854,277.3432,0,U,45452,999,30579,-.18331E-3,-.52E-6,0
ONEWEB-0050,2020-020AF,2026-07-11T01:04:03.135936,14.90464360,.0001394,88.9285,229.9697,190.9522,169.1677,0,U,45453,999,34393,.98412E-4,.981E-5,0
ONEWEB-0034,2020-020AG,2026-07-10T22:42:46.135584,13.11407965,.0001812,87.8891,16.3390,88.4884,271.6451,0,U,45454,999,30570,-.27277E-2,-.954E-5,0
ONEWEB-0060,2020-020AH,2026-07-09T18:09:49.603968,13.11414771,.00009853,87.8879,16.5723,112.0987,248.0246,0,U,45455,999,30550,.958581E-6,.13E-6,0
ONEWEB-0086,2020-020AJ,2026-07-11T04:26:35.867904,13.11418484,.0001676,87.8889,16.2842,114.5782,245.5521,0,U,45456,999,30575,.11502E-2,.42E-5,0
ONEWEB-0088,2020-020AK,2026-07-09T11:37:57.158112,13.11418418,.00018574,87.8893,16.5979,75.7971,284.3364,0,U,45457,999,30546,-.40271573E-3,-.13E-5,0
ONEWEB-0102,2020-100A,2026-07-10T09:16:16.116096,13.12443704,.00019717,87.8954,346.0612,103.9614,256.1734,0,U,47258,999,26777,-.10121074E-2,-.351E-5,0
ONEWEB-0109,2020-100B,2026-07-10T09:28:28.191936,13.12444079,.00020018,87.8962,346.0449,97.7270,262.4086,0,U,47259,999,26760,-.50729841E-3,-.17E-5,0
ONEWEB-0110,2020-100C,2026-07-09T15:49:42.513312,13.12442674,.00017199,87.8976,346.1752,104.8819,255.2500,0,U,47260,999,26767,.114155E-2,.423E-5,0
ONEWEB-0111,2020-100D,2026-07-09T16:33:35.879904,13.12443215,.00017254,87.8963,346.1877,95.4095,264.7231,0,U,47261,999,26751,-.10165326E-2,-.353E-5,0
ONEWEB-0114,2020-100E,2026-07-10T09:45:32.988384,13.12442932,.00019292,87.8970,346.0435,95.0274,265.1075,0,U,47262,999,26756,.5523511E-3,.211E-5,0
ONEWEB-0117,2020-100F,2026-07-10T09:33:20.816640,13.12443331,.0001844,87.8963,346.0352,96.7651,263.3687,0,U,47263,999,26757,-.13718353E-3,-.37E-6,0
ONEWEB-0118,2020-100G,2026-07-10T08:32:21.825888,13.12440490,.00020425,87.8968,346.0456,89.3354,270.8009,0,U,47264,999,26776,.54790244E-3,.21E-5,0
ONEWEB-0119,2020-100H,2026-07-10T09:08:56.976000,13.12442497,.00018699,87.8953,346.0557,95.0401,265.0941,0,U,47265,999,26774,-.10932025E-2,-.381E-5,0
ONEWEB-0120,2020-100J,2026-07-10T09:43:18.498144,13.12442533,.00020177,87.8957,346.0524,96.0877,264.0482,0,U,47266,999,26777,.43970929E-3,.171E-5,0
ONEWEB-0121,2020-100K,2026-07-10T09:26:01.346496,13.12443197,.00015106,87.8964,346.0433,96.3987,263.7314,0,U,47267,999,26768,-.47179749E-3,-.157E-5,0
ONEWEB-0122,2020-100L,2026-07-10T09:17:28.596192,13.12442968,.0001941,87.8962,346.0494,100.1168,260.0179,0,U,47268,999,26759,-.15443582E-2,-.543E-5,0
ONEWEB-0123,2020-100M,2026-07-10T09:11:22.935840,13.12442948,.00018634,87.8949,346.0550,92.2165,267.9177,0,U,47269,999,26773,-.10642599E-2,-.37E-5,0
ONEWEB-0124,2020-100N,2026-07-10T08:56:44.904480,13.12441690,.00017223,87.8950,346.0595,93.9238,266.2087,0,U,47270,999,26761,-.89231385E-3,-.308E-5,0
ONEWEB-0125,2020-100P,2026-07-09T15:57:00.487872,13.12442056,.00016434,87.8962,346.1859,86.7941,273.3376,0,U,47271,999,26758,.85859313E-3,.322E-5,0
ONEWEB-0126,2020-100Q,2026-07-09T10:57:08.653824,13.12441446,.00018884,87.8963,346.2407,95.1256,265.0088,0,U,47272,999,26762,-.15875863E-2,-.558E-5,0
ONEWEB-0127,2020-100R,2026-07-10T09:55:18.793344,13.12443470,.00019674,87.8953,346.0483,95.8624,264.2729,0,U,47273,999,26777,.11072894E-2,.411E-5,0
ONEWEB-0128,2020-100S,2026-07-09T16:09:12.254400,13.12441658,.00017179,87.8955,346.2097,105.7917,254.3401,0,U,47274,999,26769,-.21342131E-4,.5E-7,0
ONEWEB-0129,2020-100T,2026-07-10T09:57:45.122976,13.12441735,.00028828,87.8958,346.0383,96.9326,263.2131,0,U,47275,999,26772,.98948927E-3,.369E-5,0
