ONEWEB-0068             
1 45446U 20020Y   26191.50016633  .00000579  00000+0  15982-2 0  9997
2 45446  87.8886  16.4228 0001637  89.1015 271.0301 13.11417068305659
ONEWEB-0046             
1 45447U 20020Z   26191.94959458  .00000242  00000+0  64704-3 0  9991
2 45447  87.8881  16.3371 0001713  81.3923 278.7399 13.11419055305727
ONEWEB-0063             
1 45448U 20020AA  26191.97856000  .00000251  00000+0  67343-3 0  9996
2 45448  87.8883  16.3327 0001930  80.6790 279.4556 13.11414609305819
ONEWEB-0019             
1 45449U 20020AB  26191.48317984 -.00000385  00000+0 -11226-2 0  9994
2 45449  87.8880  16.4163 0001849  95.2639 264.8700 13.11411489305596
ONEWEB-0094             
1 45450U 20020AC  26191.43941868  .00000090  00000+0  19926-3 0  9992
2 45450  87.9146   1.2248 0001702  98.0772 262.0553 13.17648552309372
ONEWEB-0087             
1 45451U 20020AD  26191.98844963 -.00000273  00000+0 -80650-3 0  9998
2 45451  87.8895  16.3063 0001578  92.9078 267.2230 13.11414649305702
ONEWEB-0082             
1 45452U 20020AE  26191.98506190 -.00000052  00000+0 -18331-3 0  9998
2 45452  87.8893  16.3222 0001398  82.7854 277.3432 13.11414810305792
ONEWEB-0050             
1 45453U 20020AF  26192.04448074  .00000981  00000+0  98412-4 0  9991
2 45453  88.9285 229.9697 0001394 190.9522 169.1677 14.90464360343938
ONEWEB-0034             
1 45454U 20020AG  26191.94636731 -.00000954  00000+0 -27277-2 0  9990
2 45454  87.8891  16.3390 0001812  88.4884 271.6451 13.11407965305707
ONEWEB-0060             
1 45455U 20020AH  26190.75682412  .00000013  00000+0  95858-6 0  9994
2 45455  87.8879  16.5723 0000985 112.0987 248.0246 13.11414771305505
ONEWEB-0086             
1 45456U 20020AJ  26192.18513736  .00000420  00000+0  11502-2 0  9998
2 45456  87.8889  16.2842 0001676 114.5782 245.5521 13.11418484305754
ONEWEB-0088             
1 45457U 20020AK  26190.48468933 -.00000130  00000+0 -40272-3 0  9995
2 45457  87.8893  16.5979 0001857  75.7971 284.3364 13.11418418305464
ONEWEB-0102             
1 47258U 20100A   26191.38629764 -.00000351  00000+0 -10121-2 0  9990
2 47258  87.8954 346.0612 0001971 103.9614 256.1734 13.12443704267779
ONEWEB-0109             
1 47259U 20100B   26191.39477074 -.00000170  00000+0 -50730-3 0  9997
2 47259  87.8962 346.0449 0002001  97.7270 262.4086 13.12444079267608
ONEWEB-0110             
1 47260U 20100C   26190.65951983  .00000423  00000+0  11416-2 0  9999
2 47260  87.8976 346.1752 0001719 104.8819 255.2500 13.12442674267674
ONEWEB-0111             
1 47261U 20100D   26190.68999861 -.00000353  00000+0 -10165-2 0  9994
2 47261  87.8963 346.1877 0001725  95.4095 264.7231 13.12443215267518
ONEWEB-0114             
1 47262U 20100E   26191.40663181  .00000211  00000+0  55235-3 0  9998
2 47262  87.8970 346.0435 0001929  95.0274 265.1075 13.12442932267568
ONEWEB-0117             
1 47263U 20100F   26191.39815760 -.00000037  00000+0 -13718-3 0  9997
2 47263  87.8963 346.0352 0001844  96.7651 263.3687 13.12443331267576
ONEWEB-0118             
1 47264U 20100G   26191.35580817  .00000210  00000+0  54790-3 0  9992
2 47264  87.8968 346.0456 0002042  89.3354 270.8009 13.12440490267761
ONEWEB-0119             
1 47265U 20100H   26191.38121500 -.00000381  00000+0 -10932-2 0  9996
2 47265  87.8953 346.0557 0001869  95.0401 265.0941 13.12442497267749
ONEWEB-0120             
1 47266U 20100J   26191.40507521  .00000171  00000+0  43971-3 0  9996
2 47266  87.8957 346.0524 0002017  96.0877 264.0482 13.12442533267775
ONEWEB-0121             
1 47267U 20100K   26191.39307114 -.00000157  00000+0 -47180-3 0  9993
2 47267  87.8964 346.0433 0001510  96.3987 263.7314 13.12443197267682
ONEWEB-0122             
1 47268U 20100L   26191.38713653 -.00000543  00000+0 -15444-2 0  9998
2 47268  87.8962 346.0494 0001941 100.1168 260.0179 13.12442968267595
ONEWEB-0123             
1 47269U 20100M   26191.38290435 -.00000370  00000+0 -10643-2 0  9991
2 47269  87.8949 346.0550 0001863  92.2165 267.9177 13.12442948267733
ONEWEB-0124             
1 47270U 20100N   26191.37274195 -.00000308  00000+0 -89231-3 0  9998
2 47270  87.8950 346.0595 0001722  93.9238 266.2087 13.12441690267611
ONEWEB-0125             
1 47271U 20100P   26190.66458898  .00000322  00000+0  85859-3 0  9990
2 47271  87.8962 346.1859 0001643  86.7941 273.3376 13.12442056267585
ONEWEB-0126             
1 47272U 20100Q   26190.45635016 -.00000558  00000+0 -15876-2 0  9991
2 47272  87.8963 346.2407 0001888  95.1256 265.0088 13.12441446267626
ONEWEB-0127             
1 47273U 20100R   26191.41341196  .00000411  00000+0  11073-2 0  9993
2 47273  87.8953 346.0483 0001967  95.8624 264.2729 13.12443470267770
ONEWEB-0128             
1 47274U 20100S   26190.67305850  .00000005  00000+0 -21342-4 0  9990
2 47274  87.8955 346.2097 0001717 105.7917 254.3401 13.12441658267699
ONEWEB-0129             
1 47275U 20100T   26191.41510559  .00000369  00000+0  98949-3 0  9996
2 47275  87.8958 346.0383 0002882  96.9326 263.2131 13.12441735267727
